[{"OBJECT_NAME":"LEMUR-2-ARIANNA","OBJECT_ID":"2025-009CU","EPOCH":"2026-03-15T04:58:47.295840","MEAN_MOTION":15.00991244,"ECCENTRICITY":0.00048297,"INCLINATION":97.6988,"RA_OF_ASC_NODE":156.4614,"ARG_OF_PERICENTER":137.1052,"MEAN_ANOMALY":223.0549,"EPHEMERIS_TYPE":0,"CLASSIFICATION_TYPE":"U","NORAD_CAT_ID":62699,"ELEMENT_SET_NO":999,"REV_AT_EPOCH":6345,"BSTAR":0.00078085241,"MEAN_MOTION_DOT":9.916e-5,"MEAN_MOTION_DDOT":0},{"OBJECT_NAME":"LEMUR-2-ALISIA","OBJECT_ID":"2025-009DB","EPOCH":"2026-03-15T04:52:54.277536","MEAN_MOTION":15.01255508,"ECCENTRICITY":0.00067151,"INCLINATION":97.7022,"RA_OF_ASC_NODE":157.1183,"ARG_OF_PERICENTER":148.0222,"MEAN_ANOMALY":212.1411,"EPHEMERIS_TYPE":0,"CLASSIFICATION_TYPE":"U","NORAD_CAT_ID":62706,"ELEMENT_SET_NO":999,"REV_AT_EPOCH":8605,"BSTAR":0.00076124731,"MEAN_MOTION_DOT":9.734e-5,"MEAN_MOTION_DDOT":0},{"OBJECT_NAME":"LEMUR-2-ROUNDTRIPPER","OBJECT_ID":"2025-009DG","EPOCH":"2026-03-15T05:22:07.990176","MEAN_MOTION":15.02199596,"ECCENTRICITY":0.00057961,"INCLINATION":97.7297,"RA_OF_ASC_NODE":157.1491,"ARG_OF_PERICENTER":106.745,"MEAN_ANOMALY":253.4411,"EPHEMERIS_TYPE":0,"CLASSIFICATION_TYPE":"U","NORAD_CAT_ID":62711,"ELEMENT_SET_NO":999,"REV_AT_EPOCH":6351,"BSTAR":0.00082008594,"MEAN_MOTION_DOT":0.00010756,"MEAN_MOTION_DDOT":0},{"OBJECT_NAME":"LEMUR-2-MYNAMEISJEFF","OBJECT_ID":"2025-009DH","EPOCH":"2026-03-15T05:20:02.931360","MEAN_MOTION":15.02204765,"ECCENTRICITY":0.0004965,"INCLINATION":97.7343,"RA_OF_ASC_NODE":157.4728,"ARG_OF_PERICENTER":129.0375,"MEAN_ANOMALY":231.1292,"EPHEMERIS_TYPE":0,"CLASSIFICATION_TYPE":"U","NORAD_CAT_ID":62712,"ELEMENT_SET_NO":999,"REV_AT_EPOCH":6351,"BSTAR":0.00089208321,"MEAN_MOTION_DOT":0.00011708,"MEAN_MOTION_DDOT":0},{"OBJECT_NAME":"LEMUR-2-LEIA-PHILIP","OBJECT_ID":"2025-052AN","EPOCH":"2026-03-15T05:32:46.196736","MEAN_MOTION":14.96711421,"ECCENTRICITY":0.00039772,"INCLINATION":97.6942,"RA_OF_ASC_NODE":327.7358,"ARG_OF_PERICENTER":162.5423,"MEAN_ANOMALY":197.5936,"EPHEMERIS_TYPE":0,"CLASSIFICATION_TYPE":"U","NORAD_CAT_ID":63246,"ELEMENT_SET_NO":999,"REV_AT_EPOCH":5461,"BSTAR":0.00060582522,"MEAN_MOTION_DOT":6.867e-5,"MEAN_MOTION_DDOT":0},{"OBJECT_NAME":"LEMUR-2-LIA-MARTIN","OBJECT_ID":"2025-052AQ","EPOCH":"2026-03-15T06:02:40.201152","MEAN_MOTION":14.96887017,"ECCENTRICITY":0.00045614,"INCLINATION":97.7008,"RA_OF_ASC_NODE":328.1243,"ARG_OF_PERICENTER":122.1888,"MEAN_ANOMALY":237.9777,"EPHEMERIS_TYPE":0,"CLASSIFICATION_TYPE":"U","NORAD_CAT_ID":63248,"ELEMENT_SET_NO":999,"REV_AT_EPOCH":5462,"BSTAR":0.0006628173,"MEAN_MOTION_DOT":7.553e-5,"MEAN_MOTION_DDOT":0},{"OBJECT_NAME":"LEMUR-2-DELOITTE-1","OBJECT_ID":"2025-052BB","EPOCH":"2026-03-15T05:17:47.850144","MEAN_MOTION":14.96849562,"ECCENTRICITY":0.00025314,"INCLINATION":97.7029,"RA_OF_ASC_NODE":328.4097,"ARG_OF_PERICENTER":69.7372,"MEAN_ANOMALY":290.4122,"EPHEMERIS_TYPE":0,"CLASSIFICATION_TYPE":"U","NORAD_CAT_ID":63259,"ELEMENT_SET_NO":999,"REV_AT_EPOCH":5463,"BSTAR":0.00045077019,"MEAN_MOTION_DOT":5.111e-5,"MEAN_MOTION_DDOT":0},{"OBJECT_NAME":"LEMUR-2-EMERSONROSE","OBJECT_ID":"2025-052BD","EPOCH":"2026-03-15T05:19:03.466560","MEAN_MOTION":14.98303476,"ECCENTRICITY":0.00019958,"INCLINATION":97.7005,"RA_OF_ASC_NODE":328.7802,"ARG_OF_PERICENTER":32.3684,"MEAN_ANOMALY":327.7661,"EPHEMERIS_TYPE":0,"CLASSIFICATION_TYPE":"U","NORAD_CAT_ID":63261,"ELEMENT_SET_NO":999,"REV_AT_EPOCH":5466,"BSTAR":0.0005598193,"MEAN_MOTION_DOT":6.606e-5,"MEAN_MOTION_DDOT":0},{"OBJECT_NAME":"LEMUR-2-MARACHE-FRAN","OBJECT_ID":"2025-052BE","EPOCH":"2026-03-15T05:59:19.524192","MEAN_MOTION":14.9899334,"ECCENTRICITY":0.00024417,"INCLINATION":97.6997,"RA_OF_ASC_NODE":329.0062,"ARG_OF_PERICENTER":43.6262,"MEAN_ANOMALY":316.5154,"EPHEMERIS_TYPE":0,"CLASSIFICATION_TYPE":"U","NORAD_CAT_ID":63262,"ELEMENT_SET_NO":999,"REV_AT_EPOCH":5468,"BSTAR":0.00072755129,"MEAN_MOTION_DOT":8.762e-5,"MEAN_MOTION_DDOT":0},{"OBJECT_NAME":"LEMUR-2-THEFALCONER","OBJECT_ID":"2025-052BG","EPOCH":"2026-03-15T05:36:21.351744","MEAN_MOTION":14.96582845,"ECCENTRICITY":0.0001458,"INCLINATION":97.6968,"RA_OF_ASC_NODE":328.1429,"ARG_OF_PERICENTER":2.164,"MEAN_ANOMALY":357.9588,"EPHEMERIS_TYPE":0,"CLASSIFICATION_TYPE":"U","NORAD_CAT_ID":63264,"ELEMENT_SET_NO":999,"REV_AT_EPOCH":5463,"BSTAR":0.00056623511,"MEAN_MOTION_DOT":6.392e-5,"MEAN_MOTION_DDOT":0},{"OBJECT_NAME":"LEMUR-2-UNTITLED-SC","OBJECT_ID":"2025-061A","EPOCH":"2026-03-15T04:24:51.183072","MEAN_MOTION":15.12758346,"ECCENTRICITY":0.00175492,"INCLINATION":97.5558,"RA_OF_ASC_NODE":50.3264,"ARG_OF_PERICENTER":225.4598,"MEAN_ANOMALY":134.52,"EPHEMERIS_TYPE":0,"CLASSIFICATION_TYPE":"U","NORAD_CAT_ID":63351,"ELEMENT_SET_NO":999,"REV_AT_EPOCH":5337,"BSTAR":0.00029673391,"MEAN_MOTION_DOT":5.156e-5,"MEAN_MOTION_DDOT":0},{"OBJECT_NAME":"LEMUR-2-ESPERANZA","OBJECT_ID":"2025-061B","EPOCH":"2026-03-15T03:59:41.865792","MEAN_MOTION":15.12827058,"ECCENTRICITY":0.00172163,"INCLINATION":97.5564,"RA_OF_ASC_NODE":50.3817,"ARG_OF_PERICENTER":224.8594,"MEAN_ANOMALY":135.1246,"EPHEMERIS_TYPE":0,"CLASSIFICATION_TYPE":"U","NORAD_CAT_ID":63352,"ELEMENT_SET_NO":999,"REV_AT_EPOCH":5337,"BSTAR":0.00029655419,"MEAN_MOTION_DOT":5.162e-5,"MEAN_MOTION_DDOT":0},{"OBJECT_NAME":"LEMUR-2-KREMPEL-BRO2","OBJECT_ID":"2025-061C","EPOCH":"2026-03-15T03:41:34.800864","MEAN_MOTION":15.13253061,"ECCENTRICITY":0.00183482,"INCLINATION":97.5609,"RA_OF_ASC_NODE":50.7827,"ARG_OF_PERICENTER":217.3061,"MEAN_ANOMALY":142.6896,"EPHEMERIS_TYPE":0,"CLASSIFICATION_TYPE":"U","NORAD_CAT_ID":63353,"ELEMENT_SET_NO":999,"REV_AT_EPOCH":5338,"BSTAR":0.00033564689,"MEAN_MOTION_DOT":5.925e-5,"MEAN_MOTION_DDOT":0},{"OBJECT_NAME":"LEMUR-2-THERMORAPTOR","OBJECT_ID":"2025-061D","EPOCH":"2026-03-14T21:01:09.718752","MEAN_MOTION":15.13311949,"ECCENTRICITY":0.00180614,"INCLINATION":97.5617,"RA_OF_ASC_NODE":50.5658,"ARG_OF_PERICENTER":217.17,"MEAN_ANOMALY":142.8281,"EPHEMERIS_TYPE":0,"CLASSIFICATION_TYPE":"U","NORAD_CAT_ID":63354,"ELEMENT_SET_NO":999,"REV_AT_EPOCH":5334,"BSTAR":0.00034504456,"MEAN_MOTION_DOT":6.102e-5,"MEAN_MOTION_DDOT":0},{"OBJECT_NAME":"LEMUR-2-NEUROSPICY","OBJECT_ID":"2025-061E","EPOCH":"2026-03-14T22:05:46.433184","MEAN_MOTION":15.13427595,"ECCENTRICITY":0.00157338,"INCLINATION":97.5545,"RA_OF_ASC_NODE":50.3102,"ARG_OF_PERICENTER":220.2184,"MEAN_ANOMALY":139.7884,"EPHEMERIS_TYPE":0,"CLASSIFICATION_TYPE":"U","NORAD_CAT_ID":63355,"ELEMENT_SET_NO":999,"REV_AT_EPOCH":5335,"BSTAR":0.00029630711,"MEAN_MOTION_DOT":5.243e-5,"MEAN_MOTION_DDOT":0},{"OBJECT_NAME":"LEMUR-2-TILLINFINITY","OBJECT_ID":"2025-061F","EPOCH":"2026-03-15T04:34:26.332320","MEAN_MOTION":15.14008311,"ECCENTRICITY":0.0017288,"INCLINATION":97.553,"RA_OF_ASC_NODE":50.8024,"ARG_OF_PERICENTER":206.8276,"MEAN_ANOMALY":153.2063,"EPHEMERIS_TYPE":0,"CLASSIFICATION_TYPE":"U","NORAD_CAT_ID":63356,"ELEMENT_SET_NO":999,"REV_AT_EPOCH":5341,"BSTAR":0.00031045911,"MEAN_MOTION_DOT":5.591e-5,"MEAN_MOTION_DDOT":0}]
