LEMUR-2-ARIANNA         
1 62699U 25009CU  26074.20749185  .00009916  00000+0  78085-3 0  9998
2 62699  97.6988 156.4614 0004829 137.1052 223.0549 15.00991244 63458
LEMUR-2-ALISIA          
1 62706U 25009DB  26074.20340599  .00009734  00000+0  76125-3 0  9994
2 62706  97.7022 157.1183 0006715 148.0222 212.1411 15.01255508 86057
LEMUR-2-ROUNDTRIPPER    
1 62711U 25009DG  26074.22370359  .00010756  00000+0  82009-3 0  9993
2 62711  97.7297 157.1491 0005796 106.7450 253.4411 15.02199596 63510
LEMUR-2-MYNAMEISJEFF    
1 62712U 25009DH  26074.22225615  .00011708  00000+0  89208-3 0  9994
2 62712  97.7343 157.4728 0004965 129.0375 231.1292 15.02204765 63515
LEMUR-2-LEIA-PHILIP     
1 63246U 25052AN  26074.23109024  .00006867  00000+0  60583-3 0  9996
2 63246  97.6942 327.7358 0003977 162.5423 197.5936 14.96711421 54616
LEMUR-2-LIA-MARTIN      
1 63248U 25052AQ  26074.25185418  .00007553  00000+0  66282-3 0  9996
2 63248  97.7008 328.1243 0004561 122.1888 237.9777 14.96887017 54625
LEMUR-2-DELOITTE-1      
1 63259U 25052BB  26074.22069271  .00005111  00000+0  45077-3 0  9990
2 63259  97.7029 328.4097 0002531  69.7372 290.4122 14.96849562 54631
LEMUR-2-EMERSONROSE     
1 63261U 25052BD  26074.22156790  .00006606  00000+0  55982-3 0  9992
2 63261  97.7005 328.7802 0001995  32.3684 327.7661 14.98303476 54666
LEMUR-2-MARACHE-FRAN    
1 63262U 25052BE  26074.24953153  .00008762  00000+0  72755-3 0  9995
2 63262  97.6997 329.0062 0002441  43.6262 316.5154 14.98993340 54682
LEMUR-2-THEFALCONER     
1 63264U 25052BG  26074.23358046  .00006392  00000+0  56624-3 0  9990
2 63264  97.6968 328.1429 0001458   2.1640 357.9588 14.96582845 54633
LEMUR-2-UNTITLED-SC     
1 63351U 25061A   26074.18392573  .00005156  00000+0  29673-3 0  9995
2 63351  97.5558  50.3264 0017549 225.4598 134.5200 15.12758346 53375
LEMUR-2-ESPERANZA       
1 63352U 25061B   26074.16645678  .00005162  00000+0  29655-3 0  9998
2 63352  97.5564  50.3817 0017216 224.8594 135.1246 15.12827058 53371
LEMUR-2-KREMPEL-BRO2    
1 63353U 25061C   26074.15387501  .00005925  00000+0  33565-3 0  9998
2 63353  97.5609  50.7827 0018348 217.3061 142.6896 15.13253061 53383
LEMUR-2-THERMORAPTOR    
1 63354U 25061D   26073.87580693  .00006102  00000+0  34504-3 0  9996
2 63354  97.5617  50.5658 0018061 217.1700 142.8281 15.13311949 53349
LEMUR-2-NEUROSPICY      
1 63355U 25061E   26073.92067631  .00005243  00000+0  29631-3 0  9995
2 63355  97.5545  50.3102 0015733 220.2184 139.7884 15.13427595 53356
LEMUR-2-TILLINFINITY    
1 63356U 25061F   26074.19058255  .00005591  00000+0  31046-3 0  9997
2 63356  97.5530  50.8024 0017288 206.8276 153.2063 15.14008311 53417
